{"fetched_at":"2026-03-29T02:12:04Z","count":15717,"tles":[{"name":"PIESAT A","line1":"1 56153U 23047A   26086.54695684  .00006439  00000+0  35534-3 0  9999","line2":"2 56153  97.5036 274.8664 0001842 113.9958 246.1467 15.14287385165444","category":"Other"}]}