{
  "norad_id": 56153,
  "name": "PIESAT A",
  "history": [
    {
      "epoch": "2026-03-27T13:07:37.070976",
      "apogee_km": 524.4140623252124,
      "perigee_km": 521.8716308297335,
      "latitude_deg": 19.957166162236618,
      "longitude_deg": 111.80785664007999,
      "semi_major_axis_km": 6901.279846577472,
      "eccentricity": 0.0001842,
      "inclination_deg": 97.5036,
      "raan_deg": 274.8664,
      "arg_perigee_deg": 113.9958,
      "mean_anomaly_deg": 246.1467,
      "mean_motion_rev_day": 15.14287385
    }
  ]
}